CTC2_L_00294001-01
1 25058U 22582IN  26070.40846065  .00000000  00000+0  00000-0 0  9996
2 25058  75.0000   0.0000 0000000   0.0000   0.0000 13.81096544    16
CTC2_L_00294001-02
1 25059U 23989QM  26070.40846065  .00000000  00000+0  00000-0 0  9999
2 25059  75.0000   0.0000 0000000   0.0000  90.0000 13.81096544    16
CTC2_L_00294001-03
1 25060U 25262RB  26070.40846065  .00000000  00000+0  00000-0 0  9997
2 25060  75.0000   0.0000 0000000   0.0000 180.0000 13.81096544    18
CTC2_L_00294001-04
1 25061U 26712BG  26070.40846065  .00000000  00000+0  00000-0 0  9999
2 25061  75.0000   0.0000 0000000   0.0000 270.0000 13.81096544    19
CTC2_L_00294002-01
1 25062U 22218PW  26070.40846065  .00000000  00000+0  00000-0 0  9997
2 25062  75.0000  12.0000 0000000   0.0000  12.0000 13.81096544    17
CTC2_L_00294002-02
1 25063U 24495YF  26070.40846065  .00000000  00000+0  00000-0 0  9997
2 25063  75.0000  12.0000 0000000   0.0000 102.0000 13.81096544    18
CTC2_L_00294002-03
1 25064U 26346JE  26070.40846065  .00000000  00000+0  00000-0 0  9995
2 25064  75.0000  12.0000 0000000   0.0000 192.0000 13.81096544    18
CTC2_L_00294002-04
1 25065U 22103OY  26070.40846065  .00000000  00000+0  00000-0 0  9993
2 25065  75.0000  12.0000 0000000   0.0000 282.0000 13.81096544    19
CTC2_L_00294003-01
1 25066U 22690JR  26070.40846065  .00000000  00000+0  00000-0 0  9995
2 25066  75.0000  24.0000 0000000   0.0000  24.0000 13.81096544    17
CTC2_L_00294003-02
1 25067U 22153SU  26070.40846065  .00000000  00000+0  00000-0 0  9990
2 25067  75.0000  24.0000 0000000   0.0000 114.0000 13.81096544    18
CTC2_L_00294003-03
1 25068U 25830HN  26070.40846065  .00000000  00000+0  00000-0 0  9996
2 25068  75.0000  24.0000 0000000   0.0000 204.0000 13.81096544    19
CTC2_L_00294003-04
1 25069U 26398RW  26070.40846065  .00000000  00000+0  00000-0 0  9997
2 25069  75.0000  24.0000 0000000   0.0000 294.0000 13.81096544    19
CTC2_L_00294004-01
1 25070U 26386EI  26070.40846065  .00000000  00000+0  00000-0 0  9996
2 25070  75.0000  36.0000 0000000   0.0000  36.0000 13.81096544    18
CTC2_L_00294004-02
1 25071U 25760AD  26070.40846065  .00000000  00000+0  00000-0 0  9992
2 25071  75.0000  36.0000 0000000   0.0000 126.0000 13.81096544    19
CTC2_L_00294004-03
1 25072U 25531EC  26070.40846065  .00000000  00000+0  00000-0 0  9999
2 25072  75.0000  36.0000 0000000   0.0000 216.0000 13.81096544    10
CTC2_L_00294004-04
1 25073U 22071CC  26070.40846065  .00000000  00000+0  00000-0 0  9996
2 25073  75.0000  36.0000 0000000   0.0000 306.0000 13.81096544    11
CTC2_L_00294005-01
1 25074U 24142XT  26070.40846065  .00000000  00000+0  00000-0 0  9998
2 25074  75.0000  48.0000 0000000   0.0000  48.0000 13.81096544    18
CTC2_L_00294005-02
1 25075U 26947JU  26070.40846065  .00000000  00000+0  00000-0 0  9994
2 25075  75.0000  48.0000 0000000   0.0000 138.0000 13.81096544    19
CTC2_L_00294005-03
1 25076U 22384TC  26070.40846065  .00000000  00000+0  00000-0 0  9996
2 25076  75.0000  48.0000 0000000   0.0000 228.0000 13.81096544    10
CTC2_L_00294005-04
1 25077U 25678QJ  26070.40846065  .00000000  00000+0  00000-0 0  9996
2 25077  75.0000  48.0000 0000000   0.0000 318.0000 13.81096544    11
CTC2_L_00294006-01
1 25078U 22265ID  26070.40846065  .00000000  00000+0  00000-0 0  9996
2 25078  75.0000  60.0000 0000000   0.0000  60.0000 13.81096544    10
CTC2_L_00294006-02
1 25079U 23819GQ  26070.40846065  .00000000  00000+0  00000-0 0  9993
2 25079  75.0000  60.0000 0000000   0.0000 150.0000 13.81096544    11
CTC2_L_00294006-03
1 25080U 26786YL  26070.40846065  .00000000  00000+0  00000-0 0  9991
2 25080  75.0000  60.0000 0000000   0.0000 240.0000 13.81096544    13
CTC2_L_00294006-04
1 25081U 26764II  26070.40846065  .00000000  00000+0  00000-0 0  9998
2 25081  75.0000  60.0000 0000000   0.0000 330.0000 13.81096544    14
CTC2_L_00294007-01
1 25082U 26758Z   26070.40846065  .00000000  00000+0  00000-0 0  9992
2 25082  75.0000  72.0000 0000000   0.0000  72.0000 13.81096544    11
CTC2_L_00294007-02
1 25083U 23035RJ  26070.40846065  .00000000  00000+0  00000-0 0  9998
2 25083  75.0000  72.0000 0000000   0.0000 162.0000 13.81096544    12
CTC2_L_00294007-03
1 25084U 26460XR  26070.40846065  .00000000  00000+0  00000-0 0  9994
2 25084  75.0000  72.0000 0000000   0.0000 252.0000 13.81096544    13
CTC2_L_00294007-04
1 25085U 23350VF  26070.40846065  .00000000  00000+0  00000-0 0  9990
2 25085  75.0000  72.0000 0000000   0.0000 342.0000 13.81096544    14
CTC2_L_00294008-01
1 25086U 25862OT  26070.40846065  .00000000  00000+0  00000-0 0  9991
2 25086  75.0000  84.0000 0000000   0.0000  84.0000 13.81096544    11
CTC2_L_00294008-02
1 25087U 22402YN  26070.40846065  .00000000  00000+0  00000-0 0  9999
2 25087  75.0000  84.0000 0000000   0.0000 174.0000 13.81096544    12
CTC2_L_00294008-03
1 25088U 26603JD  26070.40846065  .00000000  00000+0  00000-0 0  9997
2 25088  75.0000  84.0000 0000000   0.0000 264.0000 13.81096544    13
CTC2_L_00294008-04
1 25089U 25322UP  26070.40846065  .00000000  00000+0  00000-0 0  9995
2 25089  75.0000  84.0000 0000000   0.0000 354.0000 13.81096544    14
CTC2_L_00294009-01
1 25090U 22737ZU  26070.40846065  .00000000  00000+0  00000-0 0  9994
2 25090  75.0000  96.0000 0000000   0.0000  96.0000 13.81096544    12
CTC2_L_00294009-02
1 25091U 23681DV  26070.40846065  .00000000  00000+0  00000-0 0  9994
2 25091  75.0000  96.0000 0000000   0.0000 186.0000 13.81096544    13
CTC2_L_00294009-03
1 25092U 22528JU  26070.40846065  .00000000  00000+0  00000-0 0  9994
2 25092  75.0000  96.0000 0000000   0.0000 276.0000 13.81096544    14
CTC2_L_00294009-04
1 25093U 26683GI  26070.40846065  .00000000  00000+0  00000-0 0  9991
2 25093  75.0000  96.0000 0000000   0.0000   6.0000 13.81096544    16
CTC2_L_00294010-01
1 25094U 24693LB  26070.40846065  .00000000  00000+0  00000-0 0  9991
2 25094  75.0000 108.0000 0000000   0.0000 108.0000 13.81096544    14
CTC2_L_00294010-02
1 25095U 26404TV  26070.40846065  .00000000  00000+0  00000-0 0  9994
2 25095  75.0000 108.0000 0000000   0.0000 198.0000 13.81096544    14
CTC2_L_00294010-03
1 25096U 24700ZO  26070.40846065  .00000000  00000+0  00000-0 0  9992
2 25096  75.0000 108.0000 0000000   0.0000 288.0000 13.81096544    15
CTC2_L_00294010-04
1 25097U 26853QR  26070.40846065  .00000000  00000+0  00000-0 0  9994
2 25097  75.0000 108.0000 0000000   0.0000  18.0000 13.81096544    17
CTC2_L_00294011-01
1 25098U 24595OK  26070.40846065  .00000000  00000+0  00000-0 0  9996
2 25098  75.0000 120.0000 0000000   0.0000 120.0000 13.81096544    16
CTC2_L_00294011-02
1 25099U 24477GW  26070.40846065  .00000000  00000+0  00000-0 0  9996
2 25099  75.0000 120.0000 0000000   0.0000 210.0000 13.81096544    17
CTC2_L_00294011-03
1 25100U 22863AZ  26070.40846065  .00000000  00000+0  00000-0 0  9996
2 25100  75.0000 120.0000 0000000   0.0000 300.0000 13.81096544    10
CTC2_L_00294011-04
1 25101U 22751SC  26070.40846065  .00000000  00000+0  00000-0 0  9993
2 25101  75.0000 120.0000 0000000   0.0000  30.0000 13.81096544    11
CTC2_L_00294012-01
1 25102U 23836KZ  26070.40846065  .00000000  00000+0  00000-0 0  9999
2 25102  75.0000 132.0000 0000000   0.0000 132.0000 13.81096544    18
CTC2_L_00294012-02
1 25103U 26026JE  26070.40846065  .00000000  00000+0  00000-0 0  9994
2 25103  75.0000 132.0000 0000000   0.0000 222.0000 13.81096544    19
CTC2_L_00294012-03
1 25104U 25937UZ  26070.40846065  .00000000  00000+0  00000-0 0  9995
2 25104  75.0000 132.0000 0000000   0.0000 312.0000 13.81096544    10
CTC2_L_00294012-04
1 25105U 23646NQ  26070.40846065  .00000000  00000+0  00000-0 0  9991
2 25105  75.0000 132.0000 0000000   0.0000  42.0000 13.81096544    11
CTC2_L_00294013-01
1 25106U 24455WW  26070.40846065  .00000000  00000+0  00000-0 0  9991
2 25106  75.0000 144.0000 0000000   0.0000 144.0000 13.81096544    18
CTC2_L_00294013-02
1 25107U 23547BW  26070.40846065  .00000000  00000+0  00000-0 0  9993
2 25107  75.0000 144.0000 0000000   0.0000 234.0000 13.81096544    19
CTC2_L_00294013-03
1 25108U 26866YT  26070.40846065  .00000000  00000+0  00000-0 0  9991
2 25108  75.0000 144.0000 0000000   0.0000 324.0000 13.81096544    10
CTC2_L_00294013-04
1 25109U 22301OJ  26070.40846065  .00000000  00000+0  00000-0 0  9992
2 25109  75.0000 144.0000 0000000   0.0000  54.0000 13.81096544    11
CTC2_L_00294014-01
1 25110U 26869QN  26070.40846065  .00000000  00000+0  00000-0 0  9997
2 25110  75.0000 156.0000 0000000   0.0000 156.0000 13.81096544    19
CTC2_L_00294014-02
1 25111U 25561JA  26070.40846065  .00000000  00000+0  00000-0 0  9996
2 25111  75.0000 156.0000 0000000   0.0000 246.0000 13.81096544    10
CTC2_L_00294014-03
1 25112U 26345TB  26070.40846065  .00000000  00000+0  00000-0 0  9998
2 25112  75.0000 156.0000 0000000   0.0000 336.0000 13.81096544    11
CTC2_L_00294014-04
1 25113U 26852UF  26070.40846065  .00000000  00000+0  00000-0 0  9992
2 25113  75.0000 156.0000 0000000   0.0000  66.0000 13.81096544    12
CTC2_L_00294015-01
1 25114U 26873EP  26070.40846065  .00000000  00000+0  00000-0 0  9996
2 25114  75.0000 168.0000 0000000   0.0000 168.0000 13.81096544    19
CTC2_L_00294015-02
1 25115U 25153BY  26070.40846065  .00000000  00000+0  00000-0 0  9997
2 25115  75.0000 168.0000 0000000   0.0000 258.0000 13.81096544    10
CTC2_L_00294015-03
1 25116U 24468C   26070.40846065  .00000000  00000+0  00000-0 0  9996
2 25116  75.0000 168.0000 0000000   0.0000 348.0000 13.81096544    11
CTC2_L_00294015-04
1 25117U 22481NK  26070.40846065  .00000000  00000+0  00000-0 0  9990
2 25117  75.0000 168.0000 0000000   0.0000  78.0000 13.81096544    12
CTC2_L_00294016-01
1 25118U 26033PF  26070.40846065  .00000000  00000+0  00000-0 0  9998
2 25118  75.0000 180.0000 0000000   0.0000 180.0000 13.81096544    11
CTC2_L_00294016-02
1 25119U 25164JM  26070.40846065  .00000000  00000+0  00000-0 0  9993
2 25119  75.0000 180.0000 0000000   0.0000 270.0000 13.81096544    12
